[{"OBJECT_NAME":"KUIPER-00113","OBJECT_ID":"2025-228B","EPOCH":"2026-03-09T22:29:23.137440","MEAN_MOTION":14.79886464,"ECCENTRICITY":5.385e-5,"INCLINATION":51.8999,"RA_OF_ASC_NODE":354.4999,"ARG_OF_PERICENTER":69.622,"MEAN_ANOMALY":290.48,"EPHEMERIS_TYPE":0,"CLASSIFICATION_TYPE":"U","NORAD_CAT_ID":65948,"ELEMENT_SET_NO":999,"REV_AT_EPOCH":2333,"BSTAR":-5.789971e-6,"MEAN_MOTION_DOT":-2.65e-6,"MEAN_MOTION_DDOT":0},{"OBJECT_NAME":"COSMOS 249 DEB","OBJECT_ID":"1968-091AU","EPOCH":"2026-03-09T15:21:56.246976","MEAN_MOTION":14.4883057,"ECCENTRICITY":0.0371981,"INCLINATION":61.9727,"RA_OF_ASC_NODE":173.5146,"ARG_OF_PERICENTER":67.41,"MEAN_ANOMALY":296.587,"EPHEMERIS_TYPE":0,"CLASSIFICATION_TYPE":"U","NORAD_CAT_ID":3757,"ELEMENT_SET_NO":999,"REV_AT_EPOCH":81948,"BSTAR":0.0010972,"MEAN_MOTION_DOT":0.00010007,"MEAN_MOTION_DDOT":0}]
